[{"OBJECT_NAME":"STARLINK-5928","OBJECT_ID":"2023-037AW","EPOCH":"2026-03-09T23:05:06.145152","MEAN_MOTION":14.98332921,"ECCENTRICITY":0.00025722,"INCLINATION":69.9983,"RA_OF_ASC_NODE":263.7808,"ARG_OF_PERICENTER":278.563,"MEAN_ANOMALY":81.5237,"EPHEMERIS_TYPE":0,"CLASSIFICATION_TYPE":"U","NORAD_CAT_ID":55958,"ELEMENT_SET_NO":999,"REV_AT_EPOCH":16451,"BSTAR":3.0624736e-5,"MEAN_MOTION_DOT":2.72e-6,"MEAN_MOTION_DDOT":0},{"OBJECT_NAME":"RAPIDEYE 5","OBJECT_ID":"2008-040B","EPOCH":"2026-03-09T15:17:22.403904","MEAN_MOTION":15.02179038,"ECCENTRICITY":0.0014834,"INCLINATION":97.3944,"RA_OF_ASC_NODE":91.3825,"ARG_OF_PERICENTER":86.9831,"MEAN_ANOMALY":273.3091,"EPHEMERIS_TYPE":0,"CLASSIFICATION_TYPE":"U","NORAD_CAT_ID":33313,"ELEMENT_SET_NO":999,"REV_AT_EPOCH":95055,"BSTAR":0.00014028,"MEAN_MOTION_DOT":1.794e-5,"MEAN_MOTION_DDOT":0}]
